[{"OBJECT_NAME":"STARLINK-1681","OBJECT_ID":"2020-070AD","EPOCH":"2025-10-01T23:15:45.498240","MEAN_MOTION":15.3202011,"ECCENTRICITY":0.0008077,"INCLINATION":53.0641,"RA_OF_ASC_NODE":117.7464,"ARG_OF_PERICENTER":166.8087,"MEAN_ANOMALY":193.3126,"EPHEMERIS_TYPE":0,"CLASSIFICATION_TYPE":"U","NORAD_CAT_ID":46559,"ELEMENT_SET_NO":999,"REV_AT_EPOCH":27630,"BSTAR":0.0039716,"MEAN_MOTION_DOT":0.00126346,"MEAN_MOTION_DDOT":0},{"OBJECT_NAME":"STARLINK-1714","OBJECT_ID":"2020-070AG","EPOCH":"2025-10-02T00:50:32.070624","MEAN_MOTION":15.22938039,"ECCENTRICITY":0.0009372,"INCLINATION":53.0565,"RA_OF_ASC_NODE":141.5986,"ARG_OF_PERICENTER":75.8422,"MEAN_ANOMALY":284.3615,"EPHEMERIS_TYPE":0,"CLASSIFICATION_TYPE":"U","NORAD_CAT_ID":46562,"ELEMENT_SET_NO":999,"REV_AT_EPOCH":27597,"BSTAR":0.0067977,"MEAN_MOTION_DOT":0.00165114,"MEAN_MOTION_DDOT":0},{"OBJECT_NAME":"STARLINK-1730","OBJECT_ID":"2020-070AH","EPOCH":"2025-10-01T22:04:27.952608","MEAN_MOTION":15.19385661,"ECCENTRICITY":0.0006235,"INCLINATION":53.0528,"RA_OF_ASC_NODE":142.484,"ARG_OF_PERICENTER":92.0742,"MEAN_ANOMALY":268.0967,"EPHEMERIS_TYPE":0,"CLASSIFICATION_TYPE":"U","NORAD_CAT_ID":46563,"ELEMENT_SET_NO":999,"REV_AT_EPOCH":27595,"BSTAR":0.0036601,"MEAN_MOTION_DOT":0.00078977,"MEAN_MOTION_DDOT":0},{"OBJECT_NAME":"STARLINK-1733","OBJECT_ID":"2020-070AJ","EPOCH":"2025-10-02T06:00:00.998784","MEAN_MOTION":15.1756579,"ECCENTRICITY":0.000103,"INCLINATION":53.0543,"RA_OF_ASC_NODE":147.7548,"ARG_OF_PERICENTER":83.4433,"MEAN_ANOMALY":126.0971,"EPHEMERIS_TYPE":0,"CLASSIFICATION_TYPE":"U","NORAD_CAT_ID":46564,"ELEMENT_SET_NO":999,"REV_AT_EPOCH":569,"BSTAR":0.088317,"MEAN_MOTION_DOT":0.01993491,"MEAN_MOTION_DDOT":0},{"OBJECT_NAME":"STARLINK-1735","OBJECT_ID":"2020-070AK","EPOCH":"2025-10-02T01:38:45.547008","MEAN_MOTION":15.06424366,"ECCENTRICITY":0.0001659,"INCLINATION":53.052,"RA_OF_ASC_NODE":148.6993,"ARG_OF_PERICENTER":79.3161,"MEAN_ANOMALY":280.8014,"EPHEMERIS_TYPE":0,"CLASSIFICATION_TYPE":"U","NORAD_CAT_ID":46565,"ELEMENT_SET_NO":999,"REV_AT_EPOCH":27587,"BSTAR":0.0014705,"MEAN_MOTION_DOT":0.00021704,"MEAN_MOTION_DDOT":0},{"OBJECT_NAME":"STARLINK-1740","OBJECT_ID":"2020-070AL","EPOCH":"2025-10-02T00:52:31.946304","MEAN_MOTION":15.40342477,"ECCENTRICITY":0.0007974,"INCLINATION":53.049,"RA_OF_ASC_NODE":138.8092,"ARG_OF_PERICENTER":141.0382,"MEAN_ANOMALY":219.1198,"EPHEMERIS_TYPE":0,"CLASSIFICATION_TYPE":"U","NORAD_CAT_ID":46566,"ELEMENT_SET_NO":999,"REV_AT_EPOCH":27601,"BSTAR":0.0030271,"MEAN_MOTION_DOT":0.00125776,"MEAN_MOTION_DDOT":0},{"OBJECT_NAME":"STARLINK-1741","OBJECT_ID":"2020-070AM","EPOCH":"2025-10-01T22:48:53.964576","MEAN_MOTION":15.06406562,"ECCENTRICITY":0.0001272,"INCLINATION":53.0525,"RA_OF_ASC_NODE":149.2268,"ARG_OF_PERICENTER":113.3058,"MEAN_ANOMALY":246.8065,"EPHEMERIS_TYPE":0,"CLASSIFICATION_TYPE":"U","NORAD_CAT_ID":46567,"ELEMENT_SET_NO":999,"REV_AT_EPOCH":27586,"BSTAR":0.001284,"MEAN_MOTION_DOT":0.00018898,"MEAN_MOTION_DDOT":0},{"OBJECT_NAME":"STARLINK-1531","OBJECT_ID":"2020-070AS","EPOCH":"2025-10-02T03:15:34.962048","MEAN_MOTION":15.06429994,"ECCENTRICITY":0.0001456,"INCLINATION":53.0529,"RA_OF_ASC_NODE":168.3856,"ARG_OF_PERICENTER":74.0888,"MEAN_ANOMALY":286.0261,"EPHEMERIS_TYPE":0,"CLASSIFICATION_TYPE":"U","NORAD_CAT_ID":46572,"ELEMENT_SET_NO":999,"REV_AT_EPOCH":27560,"BSTAR":0.0013839,"MEAN_MOTION_DOT":0.00020408,"MEAN_MOTION_DDOT":0},{"OBJECT_NAME":"STARLINK-1675","OBJECT_ID":"2020-070AV","EPOCH":"2025-10-02T06:00:00.998784","MEAN_MOTION":15.69030011,"ECCENTRICITY":0.000343,"INCLINATION":53.0453,"RA_OF_ASC_NODE":71.1765,"ARG_OF_PERICENTER":259.0185,"MEAN_ANOMALY":260.2278,"EPHEMERIS_TYPE":0,"CLASSIFICATION_TYPE":"U","NORAD_CAT_ID":46575,"ELEMENT_SET_NO":999,"REV_AT_EPOCH":600,"BSTAR":0.0019104,"MEAN_MOTION_DOT":0.0023088,"MEAN_MOTION_DDOT":0},{"OBJECT_NAME":"STARLINK-1677","OBJECT_ID":"2020-070AW","EPOCH":"2025-10-02T00:37:03.074592","MEAN_MOTION":15.06405596,"ECCENTRICITY":0.0001378,"INCLINATION":53.0525,"RA_OF_ASC_NODE":153.8903,"ARG_OF_PERICENTER":70.7292,"MEAN_ANOMALY":289.3846,"EPHEMERIS_TYPE":0,"CLASSIFICATION_TYPE":"U","NORAD_CAT_ID":46576,"ELEMENT_SET_NO":999,"REV_AT_EPOCH":27580,"BSTAR":0.0015742,"MEAN_MOTION_DOT":0.00023248,"MEAN_MOTION_DDOT":0},{"OBJECT_NAME":"STARLINK-1683","OBJECT_ID":"2020-070AY","EPOCH":"2025-10-01T21:10:21.029376","MEAN_MOTION":15.31793171,"ECCENTRICITY":0.0009066,"INCLINATION":53.0262,"RA_OF_ASC_NODE":117.4618,"ARG_OF_PERICENTER":143.9895,"MEAN_ANOMALY":216.1717,"EPHEMERIS_TYPE":0,"CLASSIFICATION_TYPE":"U","NORAD_CAT_ID":46578,"ELEMENT_SET_NO":999,"REV_AT_EPOCH":27630,"BSTAR":0.0037845,"MEAN_MOTION_DOT":0.00119444,"MEAN_MOTION_DDOT":0},{"OBJECT_NAME":"STARLINK-1705","OBJECT_ID":"2020-070AZ","EPOCH":"2025-10-02T06:00:00.998784","MEAN_MOTION":15.47959265,"ECCENTRICITY":0.0008264,"INCLINATION":53.0504,"RA_OF_ASC_NODE":136.6492,"ARG_OF_PERICENTER":156.9127,"MEAN_ANOMALY":279.3449,"EPHEMERIS_TYPE":0,"CLASSIFICATION_TYPE":"U","NORAD_CAT_ID":46579,"ELEMENT_SET_NO":999,"REV_AT_EPOCH":594,"BSTAR":0.0024826,"MEAN_MOTION_DOT":0.0013369,"MEAN_MOTION_DDOT":0},{"OBJECT_NAME":"STARLINK-1712","OBJECT_ID":"2020-070BB","EPOCH":"2025-10-02T00:00:02.000160","MEAN_MOTION":15.38904619,"ECCENTRICITY":0.0010802,"INCLINATION":53.0519,"RA_OF_ASC_NODE":133.526,"ARG_OF_PERICENTER":107.2894,"MEAN_ANOMALY":4.8811,"EPHEMERIS_TYPE":0,"CLASSIFICATION_TYPE":"U","NORAD_CAT_ID":46581,"ELEMENT_SET_NO":999,"REV_AT_EPOCH":578,"BSTAR":0.0042252,"MEAN_MOTION_DOT":0.00168674,"MEAN_MOTION_DDOT":0},{"OBJECT_NAME":"STARLINK-1728","OBJECT_ID":"2020-070BC","EPOCH":"2025-10-02T00:50:58.661088","MEAN_MOTION":15.06416797,"ECCENTRICITY":0.0001381,"INCLINATION":53.0535,"RA_OF_ASC_NODE":148.8457,"ARG_OF_PERICENTER":95.6876,"MEAN_ANOMALY":264.4271,"EPHEMERIS_TYPE":0,"CLASSIFICATION_TYPE":"U","NORAD_CAT_ID":46582,"ELEMENT_SET_NO":999,"REV_AT_EPOCH":27587,"BSTAR":0.00091219,"MEAN_MOTION_DOT":0.00013338,"MEAN_MOTION_DDOT":0},{"OBJECT_NAME":"STARLINK-1736","OBJECT_ID":"2020-070BF","EPOCH":"2025-10-02T02:10:39.478944","MEAN_MOTION":15.06403654,"ECCENTRICITY":0.0001424,"INCLINATION":53.0533,"RA_OF_ASC_NODE":148.9431,"ARG_OF_PERICENTER":90.6585,"MEAN_ANOMALY":269.4567,"EPHEMERIS_TYPE":0,"CLASSIFICATION_TYPE":"U","NORAD_CAT_ID":46585,"ELEMENT_SET_NO":999,"REV_AT_EPOCH":27587,"BSTAR":0.00029369,"MEAN_MOTION_DOT":4.096e-5,"MEAN_MOTION_DDOT":0},{"OBJECT_NAME":"STARLINK-1746","OBJECT_ID":"2020-070BJ","EPOCH":"2025-10-02T00:40:21.879264","MEAN_MOTION":15.06417151,"ECCENTRICITY":0.000113,"INCLINATION":53.0527,"RA_OF_ASC_NODE":148.8775,"ARG_OF_PERICENTER":115.8865,"MEAN_ANOMALY":244.2241,"EPHEMERIS_TYPE":0,"CLASSIFICATION_TYPE":"U","NORAD_CAT_ID":46588,"ELEMENT_SET_NO":999,"REV_AT_EPOCH":27587,"BSTAR":0.001332,"MEAN_MOTION_DOT":0.00019623,"MEAN_MOTION_DDOT":0}]
