STARLINK-1681           
1 46559U 20070AD  25274.96927660  .00126346  00000+0  39716-2 0  9992
2 46559  53.0641 117.7464 0008077 166.8087 193.3126 15.32020110276306
STARLINK-1714           
1 46562U 20070AG  25275.03509341  .00165114  00000+0  67977-2 0  9993
2 46562  53.0565 141.5986 0009372  75.8422 284.3615 15.22938039275973
STARLINK-1730           
1 46563U 20070AH  25274.91976797  .00078977  00000+0  36601-2 0  9993
2 46563  53.0528 142.4840 0006235  92.0742 268.0967 15.19385661275953
STARLINK-1733           
1 46564U 20070AJ  25275.25001156  .01993491  00000+0  88317-1 0  9998
2 46564  53.0543 147.7548 0001030  83.4433 126.0971 15.17565790  5694
STARLINK-1735           
1 46565U 20070AK  25275.06858272  .00021704  00000+0  14705-2 0  9996
2 46565  53.0520 148.6993 0001659  79.3161 280.8014 15.06424366275870
STARLINK-1740           
1 46566U 20070AL  25275.03648086  .00125776  00000+0  30271-2 0  9994
2 46566  53.0490 138.8092 0007974 141.0382 219.1198 15.40342477276011
STARLINK-1741           
1 46567U 20070AM  25274.95062459  .00018898  00000+0  12840-2 0  9997
2 46567  53.0525 149.2268 0001272 113.3058 246.8065 15.06406562275869
STARLINK-1531           
1 46572U 20070AS  25275.13582132  .00020408  00000+0  13839-2 0  9998
2 46572  53.0529 168.3856 0001456  74.0888 286.0261 15.06429994275602
STARLINK-1675           
1 46575U 20070AV  25275.25001156  .00230880  00000+0  19104-2 0  9994
2 46575  53.0453  71.1765 0003430 259.0185 260.2278 15.69030011  6005
STARLINK-1677           
1 46576U 20070AW  25275.02573003  .00023248  00000+0  15742-2 0  9997
2 46576  53.0525 153.8903 0001378  70.7292 289.3846 15.06405596275808
STARLINK-1683           
1 46578U 20070AY  25274.88218784  .00119444  00000+0  37845-2 0  9996
2 46578  53.0262 117.4618 0009066 143.9895 216.1717 15.31793171276309
STARLINK-1705           
1 46579U 20070AZ  25275.25001156  .00133690  00000+0  24826-2 0  9996
2 46579  53.0504 136.6492 0008264 156.9127 279.3449 15.47959265  5941
STARLINK-1712           
1 46581U 20070BB  25275.00002315  .00168674  00000+0  42252-2 0  9993
2 46581  53.0519 133.5260 0010802 107.2894   4.8811 15.38904619  5789
STARLINK-1728           
1 46582U 20070BC  25275.03540117  .00013338  00000+0  91219-3 0  9998
2 46582  53.0535 148.8457 0001381  95.6876 264.4271 15.06416797275870
STARLINK-1736           
1 46585U 20070BF  25275.09073471  .00004096  00000+0  29369-3 0  9999
2 46585  53.0533 148.9431 0001424  90.6585 269.4567 15.06403654275875
STARLINK-1746           
1 46588U 20070BJ  25275.02803101  .00019623  00000+0  13320-2 0  9997
2 46588  53.0527 148.8775 0001130 115.8865 244.2241 15.06417151275873
